{"type":"FeatureCollection","schema":"gisit.crop-outlines.v1","crop_year":"2024","source":{"name":"USDA NASS Cropland Data Layer, county statistics","url":"https://nassgeodata.gmu.edu/CropScape/","classes":{"42":"DRY BEANS","51":"CHICKPEAS","52":"LENTILS","53":"PEAS"},"api_key_required":false},"boundaries":{"name":"US Census TIGERweb county boundaries","url":"https://tigerweb.geo.census.gov/arcgis/rest/services/TIGERweb/","generalised_degrees":0.004},"min_county_acres":40,"note":"One encircling boundary per commodity, dissolved from the counties that grow it. Crops are not interchangeable and must not share a footprint.","features":[{"type":"Feature","properties":{"commodity":"CHICKPEAS","acres":20355,"counties":18,"top_counties":["Garden, Nebraska","Deuel, Nebraska","Box Butte, Nebraska","Laramie, Wyoming","Cheyenne, Nebraska"]},"geometry":{"type":"Polygon","coordinates":[[[-104.97341390107243,40.90852873840523],[-104.98698883470036,40.946816251353226],[-105.0218443699042,40.96768019480595],[-105.27983810966322,40.96820740235195],[-105.30462681296389,40.986492917548865],[-105.30564356518094,41.66846530148471],[-105.27632768989933,41.68698991160907],[-104.65427488769802,41.68300877367498],[-104.62807575373385,41.66956746368303],[-104.606649501112,41.61358751059104],[-104.56926056967644,41.59516836423965],[-104.14309999986111,41.59415020833307],[-104.1006089631624,41.61168837755785],[-104.083,41.65415012499991],[-104.083,42.99852879446795],[-104.05598438677238,43.029778635823966],[-102.06878962831252,43.02533789719798],[-102.0531923015931,43.001668446737646],[-102.05428555607591,42.83304471052207],[-102.03722917344422,42.788017716843555],[-102.03667598670894,42.50280116277797],[-102.00820154245376,42.44577193257077],[-102.00932913449103,42.160308670806955],[-101.97613414032209,42.09791469724797],[-101.98060174948361,41.99954365358261],[-102.03601938434369,41.93725288511591],[-102.0374114302603,41.82609365905993],[-102.02114343660098,41.79024484356311],[-101.95666196664673,41.74791264247369],[-101.94811812666815,41.4566114123185],[-101.90112926574483,41.42528785810812],[-101.2714729173265,41.425000000000004],[-101.2402164695559,41.3979334217104],[-101.23975085573963,41.09805471195946],[-101.22,41.0455270826734],[-101.21801033225705,40.699678873494726],[-101.2339119319562,40.671596752954315],[-101.9785011174203,40.66555287674545],[-102.01842230100972,40.62555969829369],[-102.02121646955591,40.4370665782896],[-102.04806657828964,40.4102164695559],[-103.46354871509585,40.40600000347064],[-103.48964424642449,40.41901616310805],[-103.51188070368941,40.47481519264421],[-103.54892185640958,40.49270047240479],[-104.06993042383318,40.49271214131202],[-104.10461325221323,40.472040502428825],[-104.11803305921957,40.43994310543059],[-104.12022636115228,39.99796285098649],[-104.14702742058994,39.9712198452654],[-105.05452977052838,39.97],[-105.07910395211479,39.980976676217345],[-105.08636687545537,40.35476493221024],[-105.06847251394898,40.376641078869866],[-105.00233725028221,40.389054115924864],[-104.97589989966119,40.43286026609209],[-104.97341390107243,40.90852873840523]]]}},{"type":"Feature","properties":{"commodity":"DRY BEANS","acres":148357,"counties":60,"top_counties":["Scotts Bluff, Nebraska","Box Butte, Nebraska","Yuma, Colorado","Morrill, Nebraska","Dundy, Nebraska"]},"geometry":{"type":"MultiPolygon","coordinates":[[[[-96.41992489207838,38.73894406045972],[-96.44554534183706,38.78522408661155],[-96.52864953424799,38.8145471879211],[-96.531,39.0425185550153],[-96.51494216892475,39.070480733524306],[-96.43371739922043,39.09516294903183],[-96.40778273945503,39.1963010067383],[-96.23611313391291,39.24185334460484],[-96.10152194643806,39.230418744486805],[-95.92396097771712,39.11810076342712],[-95.91600421439942,38.74055885037776],[-95.92698616834363,38.71588890943074],[-96.38852708267349,38.708999999999996],[-96.41992489207838,38.73894406045972]]],[[[-106.21871527337021,40.94956027869617],[-106.22389181882771,40.995827567608366],[-106.19506090847632,41.02576664735451],[-105.36703956702537,41.027321031949036],[-105.31417677077097,41.05911886695911],[-105.302,41.98512629593958],[-105.3164168184568,42.61150485691589],[-105.2902233334623,42.63575336584616],[-104.97064491606771,42.63941408402682],[-104.92696964817611,42.67553931221448],[-104.92999785249232,43.498485899432886],[-104.90593506278819,43.529333433583844],[-104.0409752707006,43.52943791607929],[-104.02499676662524,43.50159320153188],[-104.0237709796586,43.084148946859244],[-104.00641308198053,43.047649779525976],[-103.96984357943874,43.03044055782161],[-98.49302505357544,43.02832054798384],[-98.43728223246855,42.96927064334637],[-98.2822608217702,42.894241413529706],[-98.27328315550295,42.52096345644487],[-98.2514932077136,42.480660242093805],[-98.21347789818107,42.46718573882108],[-97.83113007146422,42.467789694324644],[-97.80465884034916,42.44389565332256],[-97.80300288016711,41.91753218283768],[-97.83006302962804,41.88621699692163],[-98.30457920053266,41.886327935693195],[-98.32531103076327,41.908954056815766],[-98.33134642044253,42.02227919792311],[-98.38079388943524,42.05871389328185],[-99.67330616839766,42.05829012118731],[-99.69176639579254,42.082897016085695],[-99.69373793647176,42.38918395514424],[-99.71733154827814,42.67858494713568],[-99.75433970123504,42.7041179627816],[-100.09356671225883,42.76203275554503],[-100.13130947923179,42.74821317336325],[-100.15271454496695,42.707881209872674],[-100.138,42.08747842940933],[-100.15666935581186,42.058300764374074],[-101.91868747852303,42.066286641410706],[-101.9617552121234,42.048423336412405],[-101.98443971316864,41.99189224062834],[-102.03444801266978,41.943177595037696],[-102.0374114302603,41.82609365905993],[-102.0170027327116,41.786287248616254],[-101.95738120029775,41.75075464708946],[-101.95495396906236,41.47895767051421],[-101.91818005521004,41.42955069997157],[-100.23741849056236,41.423002799574085],[-100.20661723022543,41.39868288945143],[-100.19808639091373,40.683418087915825],[-100.22447562067933,40.67],[-100.7078792546696,40.66751872002919],[-100.74775287254054,40.628886964945345],[-100.75292676681494,40.54011054117393],[-100.7467439005991,40.42113880750824],[-100.70686774832471,40.38248306348466],[-100.17695918451902,40.37128405382239],[-100.16749646601149,39.98810170311421],[-100.19548369925538,39.972],[-100.76770288741714,39.973365972646675],[-100.78879106082839,39.999146849708474],[-100.78853416301637,40.26483931607393],[-100.81481852275107,40.30894109196891],[-101.23427574977954,40.31980786086225],[-101.2764453096996,40.30259413811273],[-101.2943747653039,40.26072387830363],[-101.29532911451734,39.9944198776825],[-101.36278208348028,39.9567693735276],[-101.38126897207836,39.919577291439055],[-101.38335310582444,39.62454971009285],[-101.3590109697694,39.56631277176603],[-101.36223423293158,39.131881421924554],[-101.37536742123281,39.11011860651136],[-101.43034765660832,39.08882387699688],[-101.44785863074479,39.05788655534564],[-101.45425384665299,38.696692657993225],[-101.47805789647673,38.67066634090652],[-101.96682990081572,38.66711317663927],[-101.99684844535672,38.651533978763744],[-102.02178335147487,38.59611489169586],[-102.04635399024005,38.584994367526065],[-103.18718385097854,38.58564849016438],[-103.20297847944147,38.61387090335672],[-103.18420588810363,39.476885093113005],[-103.20615298868792,39.52341319658535],[-103.24433847113285,39.537023514033336],[-103.71564827088211,39.53734958776457],[-103.73636226566072,39.560212421423394],[-103.74133485695178,39.67286539828547],[-103.78508480546482,39.70884375077432],[-104.88793342171037,39.7102164695559],[-104.94727376513983,39.75805969351615],[-105.06962690604615,39.76611607659597],[-105.08968190660224,39.85171342794675],[-105.12892590244837,39.882522485985874],[-105.39639374388491,39.883006644832946],[-105.44972614945321,39.90204450185462],[-105.69705134434273,39.90757243365719],[-105.72329469388248,39.943884393873155],[-105.71957214351256,40.019594648771985],[-105.67275669285368,40.09602012197935],[-105.70715462125489,40.18223879846773],[-105.6999754999453,40.233143508249725],[-105.7139327427346,40.27711806961065],[-105.79814008637614,40.34714037933721],[-105.86395444259246,40.4546821076401],[-105.93228116018882,40.49850322378976],[-105.94201107967314,40.54807315928766],[-106.0233469135426,40.712775132666806],[-106.08241005446565,40.793952158214786],[-106.20804524306877,40.91489352851555],[-106.21871527337021,40.94956027869617]]],[[[-101.55330441668619,36.965011656549166],[-101.58500711800212,36.99632235203512],[-101.58699209157037,37.386369658193786],[-101.576037055226,37.411091687675125],[-101.06946810678859,37.418],[-101.04492011984429,37.40705284866824],[-101.0360079502934,36.999627229781765],[-101.0469024877373,36.974957738746724],[-101.55330441668619,36.965011656549166]]],[[[-102.7757220528433,37.83428016180551],[-102.7719930376139,38.26539011172864],[-102.7561968694512,38.29334584288384],[-102.04556548359636,38.298995637525096],[-102.017578855277,38.28305516843092],[-102.01201240988229,37.64571331673872],[-102.02782848711014,37.617641152080765],[-102.75668753537985,37.61536103392807],[-102.7777835304441,37.6410665782896],[-102.7757220528433,37.83428016180551]]],[[[-105.06206094763195,37.8820602952528],[-105.07999538832276,37.91662553697697],[-105.07833786250416,38.26391350580615],[-105.06043275899057,38.28565812266036],[-105.00227969473335,38.29515234422531],[-104.97512632871188,38.32535672564854],[-104.97180364774171,38.522715966575525],[-104.94792432276763,38.54933489889017],[-103.4986444671784,38.5452456754119],[-103.47557679120149,38.52147513577412],[-103.46754178062942,38.32988041574776],[-103.44540148957458,38.30446696597703],[-103.38850290787258,38.29263050656034],[-103.3706155555487,38.27067295729369],[-103.373991174046,37.645273612003244],[-103.3981849267393,37.61464213811569],[-104.06383859296608,37.614647411003084],[-104.08564953424799,37.6325471879211],[-104.0952821513924,37.6947840201213],[-104.1259647930865,37.72194117100123],[-104.6397374252569,37.868038506509144],[-105.01512123920936,37.851084204697614],[-105.06206094763195,37.8820602952528]]],[[[-110.69795980005644,44.58125489149175],[-110.71413364979094,44.617301274541674],[-110.7455657927121,44.63476924517354],[-111.05153269974896,44.635999999999996],[-111.07607072377596,44.64693594103606],[-111.08499063002357,44.99834539437958],[-111.07409526122565,45.02304392360594],[-109.10461039636996,45.03599684848229],[-107.91350408395019,45.0309979083699],[-107.87289906675629,45.01653767695642],[-107.79936500056148,44.84589301283799],[-107.73308238040474,44.79240069863093],[-107.70418711173178,44.74825111337139],[-107.54101534749732,44.70795406970765],[-107.45528591307121,44.64796571553753],[-107.36500605481534,44.618918077376854],[-107.25110648955742,44.49350892856446],[-107.17993002985266,44.46620997878501],[-107.11518480470359,44.326578813224245],[-107.1161288674781,44.21408679177484],[-107.09899592555739,44.16461680213601],[-107.09787592841742,43.85866282598964],[-107.08398745363414,43.814820851317236],[-107.08327643161013,43.48873042324125],[-107.1081067028384,43.47021361995603],[-107.43859901356869,43.46952088273855],[-107.46938255536979,43.453122913559554],[-107.48584409177212,43.422373317492465],[-107.47100443992402,42.782583881210755],[-107.51331204500106,42.70998607219872],[-107.51194782228052,42.48294236623662],[-107.493,42.4325270826734],[-107.49812437912702,42.245360893254194],[-107.52451359723422,42.232001964330536],[-109.06064741814289,42.23912964871014],[-109.07378389205387,42.26106901411992],[-109.0750888069684,42.38229082139772],[-109.09872754738214,42.42956497238934],[-109.10209671847505,42.615301024240395],[-109.11638403690779,42.64772819241611],[-109.15576860988695,42.673470461921916],[-109.18525492321412,42.718301679739625],[-109.25714611592458,42.74681861273105],[-109.27676932835719,42.790066330451545],[-109.33580944071514,42.83449409044368],[-109.3813109678601,42.90020209170556],[-109.51894169670021,42.977162221105985],[-109.57450508118666,42.99218065107807],[-109.60915514972284,43.076320325786966],[-109.7034522809134,43.2030956410099],[-109.72796158773386,43.307284256103365],[-109.77877706379958,43.349212579779596],[-109.80605302573534,43.42000595518365],[-109.83786369277828,43.43327463211694],[-110.05511804273313,43.4352344382431],[-110.07840633451453,43.45091396596993],[-110.08423484041141,44.058211125593076],[-110.154094068103,44.13027514012861],[-110.15513425655597,44.19932529388007],[-110.17596675516737,44.25113851551841],[-110.22621605082462,44.285932351634926],[-110.2663924645317,44.359798285274124],[-110.32148961161022,44.414315563782246],[-110.33206183688908,44.50323132421038],[-110.42855140543396,44.5518661532288],[-110.67093342171037,44.5532164695559],[-110.69795980005644,44.58125489149175]]],[[[-109.07300000000001,38.14680990933972],[-109.09,38.278060929111724],[-109.09,38.499844295901504],[-109.08101357768282,39.36584772170237],[-109.06987313926413,39.390227612620855],[-107.43245381947885,39.396000903135025],[-107.40786045074557,39.384979681655416],[-107.39422301925224,39.3368411736357],[-107.34813968703138,39.27302160001466],[-107.38157667184431,39.22865913456074],[-107.45437511287517,39.19177652868659],[-107.47072747274223,39.15603271289728],[-107.47232735119354,38.290603811928236],[-107.49706153091246,38.27221721984175],[-107.63355309878689,38.272],[-107.69582951005057,38.30168527879191],[-107.8510924424929,38.302],[-107.90187100658635,38.27396149916082],[-107.90675023570749,38.18286386426113],[-107.86306666149204,38.12673312116956],[-107.85373084202111,38.0561536486141],[-107.72819578987252,37.97451589328242],[-107.70435624819119,37.91132736977908],[-107.8544917878153,37.69627230648023],[-107.90992711495859,37.67107714682525],[-107.97883853736289,37.584936236533544],[-108.02042694423506,37.42456603044772],[-108.08789594654296,37.358168365235954],[-108.17431084239252,37.31263107333131],[-108.25660413822898,37.19265974382329],[-108.26137505176646,37.13725032781357],[-108.3077203000587,37.04068428085049],[-108.36278353180758,36.97484148789047],[-109.04348347344452,36.96900224324932],[-109.06984311306958,36.98231192591607],[-109.07300000000001,38.14680990933972]]]]}},{"type":"Feature","properties":{"commodity":"LENTILS","acres":202,"counties":2,"top_counties":["Montrose, Colorado","Delta, Colorado"]},"geometry":{"type":"Polygon","coordinates":[[[-108.19469823901031,38.92015804335291],[-108.13961463368291,38.96178247136088],[-108.11297893051871,39.00406393269839],[-107.99338384310826,39.08768421642013],[-107.86078770104481,39.10986263822358],[-107.7551240441815,39.091731498665425],[-107.55643461793056,39.22221406695153],[-107.50971174872416,39.246631541141774],[-107.4820234227333,39.241141936591966],[-107.471,39.21652641418231],[-107.47683674355908,38.28304974550079],[-107.63355309878689,38.272],[-107.69582951005057,38.30168527879191],[-107.86897867199545,38.2992720070731],[-107.90724679809833,38.2631350028753],[-107.90936103392808,38.16531246462016],[-107.94400793993803,38.12222666161138],[-109.04159455793798,38.122998705175],[-109.06569193779838,38.13348148603762],[-109.09,38.278060929111724],[-109.0789858939612,38.523134378728194],[-108.4460389940581,38.534567228049326],[-108.40928891639967,38.58411897158023],[-108.40402578184444,38.84541638954049],[-108.19469823901031,38.92015804335291]]]}},{"type":"Feature","properties":{"commodity":"PEAS","acres":39955,"counties":73,"top_counties":["Cheyenne, Nebraska","Perkins, Nebraska","Phillips, Colorado","Sheridan, Nebraska","Chase, Nebraska"]},"geometry":{"type":"MultiPolygon","coordinates":[[[[-95.5432397871825,38.273410360210455],[-95.53739023839357,38.395642277576165],[-95.5167283107367,38.41862582751225],[-95.05195487971356,38.41642802073087],[-95.03623752624532,38.393146559964975],[-95.03501217201297,38.26070903584995],[-95.05173788535893,38.02364592084174],[-95.07946018426098,38.007999999999996],[-95.53318197990563,38.01164691675287],[-95.54898536575557,38.039752827837304],[-95.5432397871825,38.273410360210455]]],[[[-95.8091258295554,40.76684984513935],[-95.80728179229514,40.71042324060867],[-95.74651788194328,40.657204291091205],[-95.71256238962778,40.569805798228764],[-95.6821569534398,40.53497848101827],[-95.69852293070342,40.496358741570184],[-96.46252715066076,40.49300000334],[-96.49164953424798,40.5115471879211],[-96.49378353044409,40.786933421710394],[-96.47545281207888,40.811649534248],[-95.83104435652099,40.81378021729944],[-95.80749169924923,40.797889102277786],[-95.8091258295554,40.76684984513935]]],[[[-96.44687523079024,38.116],[-96.40360228023914,38.13443737555686],[-96.36266737411657,38.20238673430997],[-95.93774756521542,38.192071448175405],[-95.93993188991128,37.58274468326435],[-96.5462623342651,37.58593858737896],[-96.55233143918711,38.09194586759908],[-96.52882334736339,38.11535600946619],[-96.44687523079024,38.116]]],[[[-96.4855518440007,40.9952604724031],[-96.52447113361819,41.01487695506532],[-96.93026322484681,41.02494030891816],[-96.92663555812207,41.47467132841551],[-96.74862192404949,41.480000000000004],[-96.69066906062073,41.46011460441339],[-96.5647517343974,41.462621504050595],[-96.3997581534039,41.38507583374455],[-96.32419647629611,41.27830255464302],[-96.31971918462224,41.23310820271229],[-96.29552490848515,41.194179809942646],[-96.28106990210972,41.11536855451619],[-96.28954964522858,41.03968711009979],[-96.34338505403952,40.985604627945975],[-96.4855518440007,40.9952604724031]]],[[[-98.50729422701548,38.24855417072951],[-98.51497562937064,38.8690840413833],[-98.50412966597099,38.894013910776295],[-97.9960389940581,38.90556722804933],[-97.95928891639967,38.955118971580234],[-97.959,39.3045270826734],[-97.94562690604616,39.33088392340402],[-97.43688988273256,39.34054087289802],[-97.40098760782077,39.3840579364325],[-97.39877034065894,39.570066328986215],[-97.37760611504378,39.59566374609597],[-96.9604017773177,39.59600350820154],[-96.93579645798991,39.58490098685669],[-96.9326907234439,39.045562042247305],[-96.89820166345513,38.99009062764436],[-96.89410649985984,38.92591577448091],[-96.86,38.8685270826734],[-96.86136103392808,38.803312464620156],[-96.89595919675985,38.75051884111886],[-96.90024660303837,38.60576608115921],[-96.91347312401224,38.58404834210095],[-97.38862690604616,38.584116076595976],[-97.40178353044409,38.60606657828961],[-97.4031528831758,38.87970541932096],[-97.44458291936473,38.925416420143925],[-97.84488224971409,38.92770577879677],[-97.89462456433687,38.89036238978306],[-97.89130196462806,38.25199965363354],[-97.84986965891116,38.206564898580595],[-97.69907923774464,38.203785406437134],[-97.67440894691197,38.185594614192425],[-97.6690107507262,37.73667569409891],[-97.67982605280365,37.712020959388575],[-98.48160314871078,37.70810038764337],[-98.50200410089799,37.82638400913753],[-98.50729422701548,38.24855417072951]]],[[[-97.36752439481266,40.32],[-97.39879103956122,40.34714661967786],[-97.398004095431,40.69761367442973],[-97.38692827319747,40.722181626483305],[-96.91441570007584,40.72800318388367],[-96.88972592542885,40.71681301770917],[-96.88300587728439,40.35159144228058],[-96.89397557892137,40.32689775171477],[-97.36752439481266,40.32]]],[[[-97.39792489795711,42.35193870977254],[-97.42544090898753,42.399492213454955],[-97.49645281207889,42.411350465752],[-97.51435258899691,42.43316140703394],[-97.50621626156196,42.871108339565644],[-97.40966471916371,42.89781425028673],[-97.30233496480052,42.89756018117807],[-97.20748863555362,42.87313415711954],[-97.17226372471956,42.83623826347324],[-97.10853378000226,42.804950657927726],[-96.99473749513179,42.782066458956834],[-96.98500431479079,42.698370176326094],[-96.99695938229752,42.32971648968839],[-97.37101321469358,42.32222417183074],[-97.39792489795711,42.35193870977254]]],[[[-97.338,41.74447089563947],[-97.36500638769067,41.71322225961296],[-97.84851310050374,41.71703969599376],[-97.86201153012779,41.74320818688078],[-97.85998587974267,42.10647220759136],[-97.83358524786532,42.12000309822701],[-97.35140652124856,42.115905988902675],[-97.338,42.089525073970584],[-97.338,41.74447089563947]]],[[[-98.75199562805483,41.045435459717396],[-98.72485754177977,41.07679036985253],[-98.26298520549442,41.069110286925465],[-98.25200436410918,41.044438186640555],[-98.25246638664433,40.782460041690946],[-98.23080478038169,40.74180839146984],[-98.1926080162552,40.7281885763715],[-97.82213356681038,40.72879011388548],[-97.80015973665768,40.71569217306477],[-97.80076199531905,40.33214022045915],[-97.93760528150784,40.320002308263824],[-98.7429858939612,40.32686562127181],[-98.754,40.351472917326596],[-98.75199562805483,41.045435459717396]]],[[[-98.53400017006732,39.987964285966925],[-98.52888392340398,40.01862690604625],[-98.50693342171037,40.0317835304441],[-97.91537309395385,40.02688392340403],[-97.902,40.00052708267341],[-97.90712709723645,39.550356901798054],[-97.93352690813336,39.53700261907529],[-98.5216762004954,39.543149155435245],[-98.53499640661033,39.569544937892914],[-98.53400017006732,39.987964285966925]]],[[[-104.97341390107243,40.90852873840523],[-104.98698883470036,40.946816251353226],[-105.0218443699042,40.96768019480595],[-105.27983810966322,40.96820740235195],[-105.30462681296389,40.986492917548865],[-105.30564356518094,41.66846530148471],[-105.27632768989933,41.68698991160907],[-104.65427488769802,41.68300877367498],[-104.62807575373385,41.66956746368303],[-104.606649501112,41.61358751059104],[-104.56926056967644,41.59516836423965],[-104.14309999986111,41.59415020833307],[-104.1006089631624,41.61168837755785],[-104.083,41.65415012499991],[-104.083,42.99852879446795],[-104.06173003680155,43.02862621479321],[-99.25545463949969,43.028001557332004],[-99.2252537801495,43.0063209747554],[-99.21811208883139,42.90376039228938],[-99.18197871784955,42.87414857283208],[-98.96234611646544,42.92657676106304],[-98.88052258084113,42.878544700158955],[-98.70295453030923,42.83445107288327],[-98.65169635061095,42.838451207519014],[-98.58518573300536,42.81313061298797],[-98.47191733221054,42.79801083432013],[-98.33583775469975,42.800479925710405],[-98.2764514378723,42.76997344295409],[-98.27100933189371,42.090657043066884],[-98.295139676885,42.05965230260916],[-101.91868753176021,42.06628664172351],[-101.96175522957068,42.04842331872515],[-101.98443971316864,41.99189224062834],[-102.03444801266978,41.943177595037696],[-102.03654491430144,41.82048931206366],[-101.99503920008945,41.77458593522864],[-101.38937332991856,41.76788357036014],[-101.37620940545447,41.74585634530299],[-101.3756173701555,41.47344258041336],[-101.35922832810219,41.442634594212244],[-101.32263275999836,41.42528997357894],[-100.32367316600104,41.42575954438674],[-100.2821557147572,41.47148361748023],[-100.28078379515532,41.742931638799554],[-100.2568633277263,41.76934774859982],[-99.21350269340151,41.77099856760689],[-99.18712215307154,41.75763583680907],[-99.1787182485424,41.04080759247882],[-99.20210080178748,41.01765777207193],[-99.34237528362289,41.016121503453995],[-99.38265058946023,40.994483719100124],[-99.39595507616376,40.96246047101364],[-99.39682353252286,40.76101439458196],[-99.38661434870723,40.72736114652173],[-99.35929977459341,40.70520979035183],[-99.17501934038198,40.69050793406719],[-99.15382469751205,40.67550443665946],[-99.15411607659603,40.33437309395375],[-99.17606657828964,40.3212164695559],[-99.54048424490995,40.321],[-99.57866367319886,40.30728532440775],[-99.60022597672318,40.26656106823867],[-99.59818765029422,39.999387764324155],[-99.61646819608205,39.97438447051741],[-100.08841284185996,39.972],[-100.12638306826138,39.958457097488164],[-100.14809802177737,39.91813834653848],[-100.14999355725709,39.56833233142949],[-100.16596240353716,39.54056848358305],[-100.63606517288278,39.537524539508],[-100.67261489267521,39.52033638757436],[-100.68998820258554,39.4838743156837],[-100.69071163689605,39.21685210370107],[-100.67740569666717,39.18469448241522],[-100.6484873248165,39.165332446839216],[-99.59348585540191,39.162],[-99.5687200177903,39.15080504210734],[-99.55401083591616,38.2636847822787],[-99.5752758774158,38.233372819852775],[-100.25805130476154,38.235575345192565],[-100.27400937995972,38.263260011024784],[-100.27759926989286,38.61984820955952],[-100.29833996985495,38.65422047305194],[-100.3302737955835,38.66751016767081],[-101.49441708063526,38.66741642014393],[-101.53584711682419,38.62170541932097],[-101.53721589317006,38.2600704618505],[-101.56840805456177,38.23299698217806],[-102.06056576380033,38.23707522467121],[-102.07400436127554,38.263380265652415],[-102.07599393647001,38.53653363370366],[-102.09690624572875,38.57115805965117],[-102.12915705808607,38.584375215684695],[-103.08927101070267,38.58182820896772],[-103.12655448991663,38.56354622637717],[-103.14815943888397,38.50830687834563],[-103.17437290244318,38.49499567489621],[-104.06801917778643,38.49555863884145],[-104.08400797210501,38.52329670560324],[-104.08090577879676,38.885592194465374],[-104.05877780982718,38.89879735738642],[-103.79937168750061,38.89864818615189],[-103.75331207472283,38.940491438548555],[-103.7353445246375,40.00688206821007],[-103.7090485062309,40.03077257903488],[-103.55057181673686,40.03281995344045],[-103.50947208454103,40.06362032680788],[-103.49919689583706,40.454714695067736],[-103.5212392422747,40.48251202734722],[-103.55512964132765,40.493],[-104.05823812727184,40.49384136329598],[-104.09628389598477,40.48032342256529],[-104.11834367777475,40.434070900739364],[-104.12022636115228,39.99796285098649],[-104.14129432905835,39.97236601428684],[-105.064672224407,39.97135611801977],[-105.08577580579197,39.99698655670338],[-105.08679103956122,40.35185338032214],[-105.06847251394898,40.376641078869866],[-105.00233725028221,40.389054115924864],[-104.97678564565729,40.4270566607695],[-104.97341390107243,40.90852873840523]],[[-101.2542394847849,40.66802491532725],[-101.29255643344538,40.654396657356436],[-101.31422191839152,40.61359968771671],[-101.31319998417808,40.43450665206031],[-101.28186981092045,40.387812968176924],[-100.86931580862412,40.379024699717476],[-100.81920973416973,40.40682979744582],[-100.81103393695211,40.61410780096523],[-100.84208762398434,40.66263308265415],[-101.2542394847849,40.66802491532725]],[[-101.57251645967789,38.72997718117805],[-101.53487487044335,38.74345624799342],[-101.51313571459168,38.78333965734503],[-101.50948021778764,39.0493294390595],[-101.53103467999395,39.09045087682834],[-101.56952997223956,39.10420359983644],[-101.95712040620073,39.103207974239865],[-102.00349948573198,39.08110371787466],[-102.016980837575,39.042930360275214],[-102.01580104992406,38.78809622767091],[-101.99366182531148,38.74182714033127],[-101.9555506490902,38.72837452766586],[-101.57251645967789,38.72997718117805]]],[[[-106.95410282464903,37.92586873574181],[-107.01170845843775,37.92805633768778],[-107.03075378386352,37.95280129849225],[-107.03100429176794,38.42461588621986],[-107.0150033547685,38.452449236153214],[-106.13025093261969,38.452185396055725],[-106.06530419072236,38.486259826945656],[-106.00506438368872,38.48047792893906],[-105.84320895607529,38.32772273153484],[-105.78102405078266,38.293146936913125],[-105.65117968703194,38.179485691491706],[-105.55873168535061,38.00398620741037],[-105.41800508200686,37.88913567622147],[-105.39916769290447,37.85431081831466],[-105.42347491799624,37.75253909293655],[-105.40771904447426,37.68786639982758],[-105.36578363508393,37.66890265564911],[-105.29071875790598,37.68726480397102],[-105.15768698410801,37.630263942202916],[-105.13975995970654,37.49377562373506],[-105.10008737600917,37.40998147366643],[-105.13546984618304,37.34041201269189],[-105.12400507478992,37.29143737717133],[-105.12864652124499,36.98081668099156],[-105.1565246217972,36.96500265607459],[-106.49049125291033,36.96782070470166],[-106.61177982208831,37.12041784963224],[-106.6313007244023,37.16843890147465],[-106.70664974963239,37.220346090042106],[-106.70903230226968,37.34545085227166],[-106.74100540541683,37.40534771628064],[-106.73144117615627,37.82363595687872],[-106.89637371213081,37.92056267576885],[-106.95410282464903,37.92586873574181]]],[[[-108.19469823901031,38.92015804335291],[-108.13961463368291,38.96178247136088],[-108.11297893051871,39.00406393269839],[-107.99338384310826,39.08768421642013],[-107.86078770104481,39.10986263822358],[-107.7551240441815,39.091731498665425],[-107.51646557875804,39.24374854032449],[-107.49232906736941,39.24664392852423],[-107.47335256731654,39.22945771268617],[-107.471,38.67047184891616],[-107.48952353322534,38.64136016201471],[-108.39560913002833,38.6431043345348],[-108.409,38.669473985737554],[-108.40402578184444,38.84541638954049],[-108.19469823901031,38.92015804335291]]]]}}]}